NORAD_CAT_ID,OBJECT_NAME,OBJECT_TYPE,EPOCH,MEAN_MOTION,ECCENTRICITY,INCLINATION,RA_OF_ASC_NODE,ARG_OF_PERICENTER,MEAN_ANOMALY,BSTAR,MEAN_MOTION_DOT,MEAN_MOTION_DDOT,TLE_LINE0,TLE_LINE1,TLE_LINE2,SEMIMAJOR_AXIS,PERIOD,APOGEE,PERIGEE,DECAYED
53829.0,STARLINK-4759,PAYLOAD,2022-10-15 06:00:00,15.73166458,8.6e-05,53.2171,129.1075,78.5915,68.4465,0.00043615,0.00060947,0.0,0 STARLINK-4759,1 53829U 22114M   22288.25001157  .00060947  00000-0  43615-3 0  9998,2 53829  53.2171 129.1075 0000860  78.5915  68.4465 15.73166458  4702,6727.991,91.535,350.434,349.277,0.0
53829.0,STARLINK-4759,PAYLOAD,2022-10-15 14:00:01,15.73211858,0.0001215,53.2151,127.4593,70.4233,165.6167,-0.0003727,-0.00052625,0.0,0 STARLINK-4759,1 53829U 22114M   22288.58334491 -.00052625  00000-0 -37270-3 0  9990,2 53829  53.2151 127.4593 0001215  70.4233 165.6167 15.73211858  4754,6727.861,91.532,350.5440000000001,348.909,0.0
53829.0,STARLINK-4759,PAYLOAD,2022-10-15 22:00:01,15.73206178,0.0001224,53.2174,125.8096,85.1775,239.7741,-1.1061e-05,-2.172e-05,0.0,0 STARLINK-4759,1 53829U 22114M   22288.91668981 -.00002172  00000-0 -11061-4 0  9994,2 53829  53.2174 125.8096 0001224  85.1775 239.7741 15.73206178  1301,6727.878000000002,91.533,350.566,348.9190000000001,0.0
53829.0,STARLINK-4759,PAYLOAD,2022-10-16 14:00:01,15.73171686,0.0001042,53.2151,122.5111,61.012,81.6784,6.138899999999999e-05,7.994e-05,0.0,0 STARLINK-4759,1 53829U 22114M   22289.58334491  .00007994  00000-0  61389-4 0  9997,2 53829  53.2151 122.5111 0001042  61.0120  81.6784 15.73171686  4919,6727.976,91.535,350.542,349.14,0.0
53829.0,STARLINK-4759,PAYLOAD,2022-10-16 22:00:00,15.73155099,0.0001311,53.2154,120.8635,48.0933,183.4975,0.00068083,0.00095841,0.0,0 STARLINK-4759,1 53829U 22114M   22289.91667824  .00095841  00000-0  68083-3 0  9998,2 53829  53.2154 120.8635 0001311  48.0933 183.4975 15.73155099  1303,6728.023,91.536,350.77,349.006,0.0
53829.0,STARLINK-4759,PAYLOAD,2022-10-17 06:00:00,15.73260223,0.0001255,53.2158,119.212,53.7938,266.7392,-0.00058187,-0.00081702,0.0,0 STARLINK-4759,1 53829U 22114M   22290.25001157 -.00081702  00000-0 -58187-3 0  9995,2 53829  53.2158 119.2120 0001255  53.7938 266.7392 15.73260223  5019,6727.723000000001,91.53,350.43300000000005,348.744,0.0
53829.0,STARLINK-4759,PAYLOAD,2022-10-17 14:00:01,15.73226919,0.0001443,53.2154,117.562,64.4352,345.1055,-3.6788e-05,-5.786e-05,0.0,0 STARLINK-4759,1 53829U 22114M   22290.58334491 -.00005786  00000-0 -36788-4 0  9993,2 53829  53.2154 117.5620 0001443  64.4352 345.1055 15.73226919  5066,6727.818,91.532,350.654,348.713,0.0
53829.0,STARLINK-4759,PAYLOAD,2022-10-17 22:00:00,15.73208567,0.0001608,53.2148,115.9153,53.1761,85.3178,-9.1781e-05,-0.00013486,0.0,0 STARLINK-4759,1 53829U 22114M   22290.91667824 -.00013486  00000-0 -91781-4 0  9999,2 53829  53.2148 115.9153 0001608  53.1761  85.3178 15.73208567  1305,6727.871,91.533,350.8180000000001,348.654,0.0
53829.0,STARLINK-4759,PAYLOAD,2022-10-18 08:00:01,15.73144134,0.0001428,53.2145,113.8512,59.77,279.9049,0.00041965,0.00058546,0.0,0 STARLINK-4759,1 53829U 22114M   22291.33334491  .00058546  00000-0  41965-3 0  9999,2 53829  53.2145 113.8512 0001428  59.7700 279.9049 15.73144134  5180,6728.054,91.536,350.88,348.959,0.0
53829.0,STARLINK-4759,PAYLOAD,2022-10-18 14:00:01,15.73216912,0.0001395,53.2148,112.6144,58.5462,257.7831,-0.00045478,-0.00064008,0.0,0 STARLINK-4759,1 53829U 22114M   22291.58334491 -.00064008  00000-0 -45478-3 0  9991,2 53829  53.2148 112.6144 0001395  58.5462 257.7831 15.73216912  1303,6727.847,91.532,350.65,348.773,0.0
53829.0,STARLINK-4759,PAYLOAD,2022-10-18 22:00:00,15.73202627,0.0001406999999999,53.2176,110.9636,55.2052,350.092,2.1952e-05,2.462e-05,0.0,0 STARLINK-4759,1 53829U 22114M   22291.91667824  .00002462  00000-0  21952-4 0  9993,2 53829  53.2176 110.9636 0001407  55.2052 350.0920 15.73202627  1308,6727.888000000001,91.533,350.699,348.806,0.0
53829.0,STARLINK-4759,PAYLOAD,2022-10-19 08:00:01,15.7321397,0.0001383,53.2148,108.9028,49.9033,196.4791,8.934600000000001e-05,0.00011944,0.0,0 STARLINK-4759,1 53829U 22114M   22292.33334491  .00011944  00000-0  89346-4 0  9997,2 53829  53.2148 108.9028 0001383  49.9033 196.4791 15.73213970  5340,6727.855,91.532,350.651,348.79,0.0
53829.0,STARLINK-4759,PAYLOAD,2022-10-19 14:00:01,15.73233206,0.0001530999999999,53.2147,107.6661,51.4214,171.6897,-6.1122e-05,-9.202e-05,0.0,0 STARLINK-4759,1 53829U 22114M   22292.58334491 -.00009202  00000-0 -61122-4 0  9992,2 53829  53.2147 107.6661 0001531  51.4214 171.6897 15.73233206  1300,6727.801,91.531,350.696,348.635,0.0
53829.0,STARLINK-4759,PAYLOAD,2022-10-19 22:00:00,15.73212808,0.0001644,53.2142,106.0183,42.7241,269.3552,2.1432e-05,2.39e-05,0.0,0 STARLINK-4759,1 53829U 22114M   22292.91667824  .00002390  00000-0  21432-4 0  9997,2 53829  53.2142 106.0183 0001644  42.7241 269.3552 15.73212808  1303,6727.859,91.532,350.83,348.61800000000005,0.0
53829.0,STARLINK-4759,PAYLOAD,2022-10-20 06:00:00,15.73221719,0.000129,53.2141,104.3667,39.9011,1.112,-0.00023907,-0.00034067,0.0,0 STARLINK-4759,1 53829U 22114M   22293.25001157 -.00034067  00000-0 -23907-3 0  9992,2 53829  53.2141 104.3667 0001290  39.9011   1.1120 15.73221719  5487,6727.833000000001,91.532,350.566,348.83,0.0
53829.0,STARLINK-4759,PAYLOAD,2022-10-20 14:00:01,15.73208955,0.0001309,53.2148,102.7164,40.7511,89.1993,9.878e-05,0.0001327,0.0,0 STARLINK-4759,1 53829U 22114M   22293.58334491  .00013270  00000-0  98780-4 0  9991,2 53829  53.2148 102.7164 0001309  40.7511  89.1993 15.73208955  1302,6727.87,91.533,350.615,348.85400000000016,0.0
53829.0,STARLINK-4759,PAYLOAD,2022-10-20 22:00:00,15.73149649,0.0001673,53.2148,101.0689,34.2435,184.6275,0.0003347,0.00046513,0.0,0 STARLINK-4759,1 53829U 22114M   22293.91667824  .00046513  00000-0  33470-3 0  9997,2 53829  53.2148 101.0689 0001673  34.2435 184.6275 15.73149649  1301,6728.0390000000025,91.536,351.029,348.778,0.0
53829.0,STARLINK-4759,PAYLOAD,2022-10-21 06:00:00,15.73212589,0.0001422,53.2151,99.4172,35.6332,272.1701,-0.00021923,-0.0003128999999999,0.0,0 STARLINK-4759,1 53829U 22114M   22294.25001157 -.00031290  00000-0 -21923-3 0  9994,2 53829  53.2151  99.4172 0001422  35.6332 272.1701 15.73212589  5647,6727.859,91.532,350.681,348.76800000000014,0.0
53829.0,STARLINK-4759,PAYLOAD,2022-10-21 14:00:01,15.7323203,0.000146,53.2149,97.768,32.4848,4.3192,0.00014777,0.00020197,0.0,0 STARLINK-4759,1 53829U 22114M   22294.58334491  .00020197  00000-0  14777-3 0  9991,2 53829  53.2149  97.7680 0001460  32.4848   4.3192 15.73232030  1309,6727.804,91.531,350.651,348.68699999999984,0.0
53829.0,STARLINK-4759,PAYLOAD,2022-10-21 22:00:00,15.732234,0.0001855,53.2135,96.1204,32.4381,93.3099,-0.00035801,-0.00050617,0.0,0 STARLINK-4759,1 53829U 22114M   22294.91667824 -.00050617  00000-0 -35801-3 0  9990,2 53829  53.2135  96.1204 0001855  32.4381  93.3099 15.73223400  5757,6727.828,91.532,350.941,348.445,0.0
53829.0,STARLINK-4759,PAYLOAD,2022-10-22 14:00:01,15.7328079,0.0001846,53.2137,92.8196,37.1602,266.422,-0.00053641,-0.00075495,0.0,0 STARLINK-4759,1 53829U 22114M   22295.58334491 -.00075495  00000-0 -53641-3 0  9998,2 53829  53.2137  92.8196 0001846  37.1602 266.4220 15.73280790  1301,6727.665,91.528,350.772,348.288,0.0
53829.0,STARLINK-4759,PAYLOAD,2022-10-22 22:00:00,15.73241177,0.00021,53.2136,91.1711,28.843000000000004,3.7524,0.0002121999999999,0.00029318,0.0,0 STARLINK-4759,1 53829U 22114M   22295.91667824  .00029318  00000-0  21220-3 0  9993,2 53829  53.2136  91.1711 0002100  28.8430   3.7524 15.73241177  1300,6727.778,91.531,351.056,348.23,0.0
53829.0,STARLINK-4759,PAYLOAD,2022-10-23 00:00:02,15.73278624,0.000207,53.2136,90.7581,28.8435,116.0538,-0.00032541,-0.00046198,0.0,0 STARLINK-4759,1 53829U 22114M   22296.00002315 -.00046198  00000-0 -32541-3 0  9997,2 53829  53.2136  90.7581 0002070  28.8435 116.0538 15.73278624  5923,6727.670999999999,91.529,350.92900000000014,348.14300000000014,0.0
53829.0,STARLINK-4759,PAYLOAD,2022-10-23 14:00:01,15.73257027,0.0001958,53.2138,87.8704,28.8396,181.7264,-0.00068354,-0.00095709,0.0,0 STARLINK-4759,1 53829U 22114M   22296.58334491 -.00095709  00000-0 -68354-3 0  9996,2 53829  53.2138  87.8704 0001958  28.8396 181.7264 15.73257027  1306,6727.733,91.53,350.915,348.28,0.0
53829.0,STARLINK-4759,PAYLOAD,2022-10-23 22:00:00,15.73165101,0.0002164,53.2132,86.2217,24.2367,275.2842,-7.2958e-05,-0.00010833,0.0,0 STARLINK-4759,1 53829U 22114M   22296.91667824 -.00010833  00000-0 -72958-4 0  9993,2 53829  53.2132  86.2217 0002164  24.2367 275.2842 15.73165101  1302,6727.995,91.535,351.316,348.404,0.0
53829.0,STARLINK-4759,PAYLOAD,2022-10-24 06:00:00,15.73141438,0.0001958,53.2133,84.5701,29.1558,359.2585,-0.00050017,-0.00070065,0.0,0 STARLINK-4759,1 53829U 22114M   22297.25001157 -.00070065  00000-0 -50017-3 0  9996,2 53829  53.2133  84.5701 0001958  29.1558 359.2585 15.73141438  6116,6728.062,91.537,351.244,348.61,0.0
53829.0,STARLINK-4759,PAYLOAD,2022-10-24 14:00:01,15.73074294,0.0002145999999999,53.2137,82.9217,31.3844,85.8574,0.00049744,0.00069398,0.0,0 STARLINK-4759,1 53829U 22114M   22297.58334491  .00069398  00000-0  49744-3 0  9992,2 53829  53.2137  82.9217 0002146  31.3844  85.8574 15.73074294  1308,6728.254,91.54,351.56199999999984,348.675,0.0
53829.0,STARLINK-4759,PAYLOAD,2022-10-24 22:00:00,15.73132765,0.0002271,53.2137,81.2733,24.9899,181.0432,0.0010404,0.00147566,0.0,0 STARLINK-4759,1 53829U 22114M   22297.91667824  .00147566  00000-0  10404-2 0  9992,2 53829  53.2137  81.2733 0002271  24.9899 181.0432 15.73132765  1300,6728.087,91.537,351.48,348.4240000000001,0.0
53829.0,STARLINK-4759,PAYLOAD,2022-10-25 00:00:00,15.73199534,0.0002266,53.2139,80.8604,24.2852,293.9516,0.00034241,0.0004771,0.0,0 STARLINK-4759,1 53829U 22114M   22298.00001157  .00047710  00000-0  34241-3 0  9990,2 53829  53.2139  80.8604 0002266  24.2852 293.9516 15.73199534  6230,6727.897,91.533,351.286,348.237,0.0
